[{"OBJECT_NAME":"HERMES-2","OBJECT_ID":"2025-052AK","EPOCH":"2026-03-09T22:17:00.130272","MEAN_MOTION":15.28021069,"ECCENTRICITY":0.00063399,"INCLINATION":97.4004,"RA_OF_ASC_NODE":324.4926,"ARG_OF_PERICENTER":99.416,"MEAN_ANOMALY":260.7796,"EPHEMERIS_TYPE":0,"CLASSIFICATION_TYPE":"U","NORAD_CAT_ID":63243,"ELEMENT_SET_NO":999,"REV_AT_EPOCH":5485,"BSTAR":0.00034839454,"MEAN_MOTION_DOT":9.456e-5,"MEAN_MOTION_DDOT":0},{"OBJECT_NAME":"STARLINK-33739","OBJECT_ID":"2025-076D","EPOCH":"2026-03-09T09:49:24.053088","MEAN_MOTION":15.27599048,"ECCENTRICITY":0.00021339,"INCLINATION":43.0046,"RA_OF_ASC_NODE":323.6207,"ARG_OF_PERICENTER":272.8873,"MEAN_ANOMALY":87.1735,"EPHEMERIS_TYPE":0,"CLASSIFICATION_TYPE":"U","NORAD_CAT_ID":63572,"ELEMENT_SET_NO":999,"REV_AT_EPOCH":5178,"BSTAR":0.00078344875,"MEAN_MOTION_DOT":0.00021372,"MEAN_MOTION_DDOT":0}]
